NORAD_CAT_ID,OBJECT_NAME,OBJECT_TYPE,EPOCH,MEAN_MOTION,ECCENTRICITY,INCLINATION,RA_OF_ASC_NODE,ARG_OF_PERICENTER,MEAN_ANOMALY,BSTAR,MEAN_MOTION_DOT,MEAN_MOTION_DDOT,TLE_LINE0,TLE_LINE1,TLE_LINE2,SEMIMAJOR_AXIS,PERIOD,APOGEE,PERIGEE,DECAYED
54076.0,STARLINK-5201,PAYLOAD,2024-05-12 04:57:29,15.08803481,0.0001553,53.2169,95.6535,69.5729,290.5429,-0.00051524,-8.47e-05,0.0,0 STARLINK-5201,1 54076U 22136AB  24133.20659156 -.00008470  00000-0 -51524-3 0  9994,2 54076  53.2169  95.6535 0001553  69.5729 290.5429 15.08803481 86716,6917.992,95.44,540.931,538.783,0.0
54076.0,STARLINK-5201,PAYLOAD,2024-05-12 14:29:49,15.08792081,0.0001641,53.2177,93.87,83.4157,276.7022,-0.00054224,-8.896e-05,0.0,0 STARLINK-5201,1 54076U 22136AB  24133.60404647 -.00008896  00000-0 -54224-3 0  9993,2 54076  53.2177  93.8700 0001641  83.4157 276.7022 15.08792081 86298,6918.027,95.441,541.027,538.757,0.0
54076.0,STARLINK-5201,PAYLOAD,2024-05-13 04:48:16,15.08835111,0.0001435,53.2176,91.193,84.4465,275.6691,0.00013284,1.827e-05,0.0,0 STARLINK-5201,1 54076U 22136AB  24134.20019480  .00001827  00000-0  13284-3 0  9993,2 54076  53.2176  91.1930 0001435  84.4465 275.6691 15.08835111 86862,6917.895,95.438,540.753,538.768,0.0
54076.0,STARLINK-5201,PAYLOAD,2024-05-13 20:42:07,15.08844657,0.0001331,53.2173,88.2172,101.7294,258.3848,0.000174,2.483e-05,0.0,0 STARLINK-5201,1 54076U 22136AB  24134.86259039  .00002483  00000-0  17400-3 0  9994,2 54076  53.2173  88.2172 0001331 101.7294 258.3848 15.08844657 86487,6917.866,95.437,540.652,538.81,0.0
54076.0,STARLINK-5201,PAYLOAD,2024-05-14 06:14:27,15.08844594,0.0001499,53.2171,86.4352,85.9207,274.1956,0.00080872,0.00012608,0.0,0 STARLINK-5201,1 54076U 22136AB  24135.26003479  .00012608  00000-0  80872-3 0  9997,2 54076  53.2171  86.4352 0001499  85.9207 274.1956 15.08844594 87024,6917.866,95.437,540.768,538.694,0.0
54076.0,STARLINK-5201,PAYLOAD,2024-05-14 14:11:22,15.08846047,0.000131,53.2165,84.948,87.1854,272.9288,0.00068424,0.0001062,0.0,0 STARLINK-5201,1 54076U 22136AB  24135.59123448  .00010620  00000-0  68424-3 0  9993,2 54076  53.2165  84.9480 0001310  87.1854 272.9288 15.08846047 86596,6917.862,95.437,540.633,538.821,0.0
54076.0,STARLINK-5201,PAYLOAD,2024-05-15 02:54:26,15.08865275,0.0001276,53.2158,82.5682,82.1854,277.9283,0.0004631,7.095e-05,0.0,0 STARLINK-5201,1 54076U 22136AB  24136.12113902  .00007095  00000-0  46310-3 0  9999,2 54076  53.2158  82.5682 0001276  82.1854 277.9283 15.08865275 86675,6917.803,95.436,540.551,538.785,0.0
54076.0,STARLINK-5201,PAYLOAD,2024-05-15 20:23:40,15.08855202,0.0001448,53.2163,79.2957,93.3484,266.7674,-1.9266e-05,-5.95e-06,0.0,0 STARLINK-5201,1 54076U 22136AB  24136.84977617 -.00000595  00000-0 -19266-4 0  9990,2 54076  53.2163  79.2957 0001448  93.3484 266.7674 15.08855202 87268,6917.834,95.437,540.701,538.697,0.0
54076.0,STARLINK-5201,PAYLOAD,2024-05-16 02:45:13,15.08851865,0.0001355,53.2166,78.1061,108.7655,251.3484,-6.4661e-05,-1.317e-05,0.0,0 STARLINK-5201,1 54076U 22136AB  24137.11473439 -.00001317  00000-0 -64661-4 0  9996,2 54076  53.2166  78.1061 0001355 108.7655 251.3484 15.08851865 86824,6917.844,95.437,540.646,538.772,0.0
54076.0,STARLINK-5201,PAYLOAD,2024-05-16 20:14:27,15.08845643,0.0001378,53.218,74.8357,110.7395,249.3745,-0.00010808,-2.008e-05,0.0,0 STARLINK-5201,1 54076U 22136AB  24137.84337342 -.00002008  00000-0 -10808-3 0  9999,2 54076  53.2180  74.8357 0001378 110.7395 249.3745 15.08845643 87410,6917.863,95.437,540.681,538.775,0.0
54076.0,STARLINK-5201,PAYLOAD,2024-05-17 02:35:59,15.08857055,0.0001533,53.2174,73.6494,114.3338,245.7814,-1.8944e-05,-5.9e-06,0.0,0 STARLINK-5201,1 54076U 22136AB  24138.10832469 -.00000590  00000-0 -18944-4 0  9993,2 54076  53.2174  73.6494 0001533 114.3338 245.7814 15.08857055 87453,6917.828,95.436,540.754,538.633,0.0
54076.0,STARLINK-5201,PAYLOAD,2024-05-17 12:08:18,15.08847981,0.0001395,53.2178,71.8642,111.9806,248.1335,-7.3253e-05,-1.454e-05,0.0,0 STARLINK-5201,1 54076U 22136AB  24138.50576757 -.00001454  00000-0 -73253-4 0  9996,2 54076  53.2178  71.8642 0001395 111.9806 248.1335 15.08847981 87510,6917.856,95.437,540.686,538.756,0.0
54076.0,STARLINK-5201,PAYLOAD,2024-05-17 20:05:15,15.08822767,0.0001768,53.2186,70.3775,98.2605,261.8588,-0.00015351,-2.729e-05,0.0,0 STARLINK-5201,1 54076U 22136AB  24138.83698559 -.00002729  00000-0 -15351-3 0  9997,2 54076  53.2186  70.3775 0001768  98.2605 261.8588 15.08822767 87560,6917.933,95.439,541.021,538.575,0.0
54076.0,STARLINK-5201,PAYLOAD,2024-05-18 02:26:47,15.08832357,0.0001204,53.2172,69.1883,113.1664,246.9455,2.8912e-05,1.72e-06,0.0,0 STARLINK-5201,1 54076U 22136AB  24139.10194183  .00000172  00000-0  28912-4 0  9998,2 54076  53.2172  69.1883 0001204 113.1664 246.9455 15.08832357 87606,6917.904,95.438,540.602,538.936,0.0
54076.0,STARLINK-5201,PAYLOAD,2024-05-18 11:59:06,15.08844943,0.0001289,53.2187,67.4035,113.7461,246.3666,0.00019383,2.799e-05,0.0,0 STARLINK-5201,1 54076U 22136AB  24139.49937635  .00002799  00000-0  19383-3 0  9995,2 54076  53.2187  67.4035 0001289 113.7461 246.3666 15.08844943 87664,6917.865,95.437,540.622,538.839,0.0
54076.0,STARLINK-5201,PAYLOAD,2024-05-18 19:56:01,15.08846281,0.0001273,53.2179,65.9166,116.3332,243.7791,7.6512e-05,9.3e-06,0.0,0 STARLINK-5201,1 54076U 22136AB  24139.83057416  .00000930  00000-0  76512-4 0  9996,2 54076  53.2179  65.9166 0001273 116.3332 243.7791 15.08846281 87232,6917.861,95.437,540.607,538.846,0.0
54076.0,STARLINK-5201,PAYLOAD,2024-05-19 02:17:38,15.0876065,7.14e-05,53.216,64.726,91.8888,268.2186,-0.0011037,-0.00017771,0.0,0 STARLINK-5201,1 54076U 22136AB  24140.09558209 -.00017771  00000-0 -11037-2 0  9994,2 54076  53.2160  64.7260 0000714  91.8888 268.2186 15.08760650 87758,6918.123,95.443,540.482,539.494,0.0
54076.0,STARLINK-5201,PAYLOAD,2024-05-19 05:28:27,15.08718453,8.17e-05,53.2164,64.1318,82.9542,277.1543,-0.0016357,-0.00026139,0.0,0 STARLINK-5201,1 54076U 22136AB  24140.22809113 -.00026139  00000-0 -16357-2 0  9990,2 54076  53.2164  64.1318 0000817  82.9542 277.1543 15.08718453 87291,6918.252,95.445,540.682,539.552,0.0
54076.0,STARLINK-5201,PAYLOAD,2024-05-20 03:44:29,15.08286103,4.6e-05,53.2169,59.9716,61.3322,298.7716,-0.0053873,-0.00083751,0.0,0 STARLINK-5201,1 54076U 22136AB  24141.15590199 -.00083751  00000-0 -53873-2 0  9991,2 54076  53.2169  59.9716 0000460  61.3322 298.7716 15.08286103 87913,6919.574,95.473,541.757,541.121,0.0
54076.0,STARLINK-5201,PAYLOAD,2024-05-20 14:00:01,15.07181166,0.0001423,53.2168,58.0586,98.1222,62.9536,0.001539,0.00023205,0.0,0 STARLINK-5201,1 54076U 22136AB  24141.58334491  .00023205  00000-0  15390-2 0  9997,2 54076  53.2168  58.0586 0001423  98.1222  62.9536 15.07181166  5805,6922.955,95.543,545.806,543.835,0.0
54076.0,STARLINK-5201,PAYLOAD,2024-05-21 06:00:00,15.07157065,0.0001423,53.2169,55.0753,79.2671,101.0371,0.0041334,0.00063116,0.0,0 STARLINK-5201,1 54076U 22136AB  24142.25001157  .00063116  00000-0  41334-2 0  9994,2 54076  53.2169  55.0753 0001423  79.2671 101.0371 15.07157065 88081,6923.029,95.544,545.879,543.909,0.0
54076.0,STARLINK-5201,PAYLOAD,2024-05-21 14:00:01,15.07182809,0.0001366,53.2171,53.581,89.5073,100.4098,0.0045448,0.00069538,0.0,0 STARLINK-5201,1 54076U 22136AB  24142.58334491  .00069538  00000-0  45448-2 0  9994,2 54076  53.2171  53.5810 0001366  89.5073 100.4098 15.07182809  5652,6922.95,95.542,545.761,543.87,0.0
54076.0,STARLINK-5201,PAYLOAD,2024-05-21 22:00:00,15.07270044,0.0001463,53.2174,52.0895,92.7155,106.824,-0.004865,-0.00073706,0.0,0 STARLINK-5201,1 54076U 22136AB  24142.91667824 -.00073706  00000-0 -48650-2 0  9992,2 54076  53.2174  52.0895 0001463  92.7155 106.8240 15.07270044  5701,6922.683,95.537,545.561,543.535,0.0
54076.0,STARLINK-5201,PAYLOAD,2024-05-22 06:00:00,15.07179493,0.0001372,53.2173,50.5977,93.4818,115.7463,0.00058545,8.633e-05,0.0,0 STARLINK-5201,1 54076U 22136AB  24143.25001157  .00008633  00000-0  58545-3 0  9991,2 54076  53.2173  50.5977 0001372  93.4818 115.7463 15.07179493 88238,6922.961,95.543,545.775,543.876,0.0
54076.0,STARLINK-5201,PAYLOAD,2024-05-22 14:00:01,15.07162595,0.0001384,53.2176,49.1035,107.5638,111.2746,0.0049271,0.00075433,0.0,0 STARLINK-5201,1 54076U 22136AB  24143.58334491  .00075433  00000-0  49271-2 0  9994,2 54076  53.2176  49.1035 0001384 107.5638 111.2746 15.07162595  5802,6923.012,95.544,545.835,543.919,0.0
54076.0,STARLINK-5201,PAYLOAD,2024-05-22 22:00:00,15.07248196,0.0001422,53.2178,47.6121,101.4427,126.9954,-0.0049568,-0.00075033,0.0,0 STARLINK-5201,1 54076U 22136AB  24143.91667824 -.00075033  00000-0 -49568-2 0  9997,2 54076  53.2178  47.6121 0001422 101.4427 126.9954 15.07248196  5856,6922.75,95.538,545.6,543.631,0.0
54076.0,STARLINK-5201,PAYLOAD,2024-05-23 14:00:01,15.07164731,0.000131,53.218,44.6261,98.671,149.0253,0.004871,0.00074566,0.0,0 STARLINK-5201,1 54076U 22136AB  24144.58334491  .00074566  00000-0  48710-2 0  9998,2 54076  53.2180  44.6261 0001310  98.6710 149.0253 15.07164731 88434,6923.006,95.544,545.778,543.964,0.0
54076.0,STARLINK-5201,PAYLOAD,2024-05-23 20:00:01,15.07229771,0.0001341,53.2183,43.5073,95.346,69.6078,-0.0014762,-0.00022698,0.0,0 STARLINK-5201,1 54076U 22136AB  24144.83335648 -.00022698  00000-0 -14762-2 0  9992,2 54076  53.2183  43.5073 0001341  95.3460  69.6078 15.07229771  5668,6922.807,95.54,545.6,543.743,0.0
54076.0,STARLINK-5201,PAYLOAD,2024-05-24 03:13:44,15.0721229,0.0001533,53.2196,42.1526,104.0631,256.0531,-2.6481e-05,-6.87e-06,0.0,0 STARLINK-5201,1 54076U 22136AB  24145.13454493 -.00000687  00000-0 -26481-4 0  9993,2 54076  53.2196  42.1526 0001533 104.0631 256.0531 15.07212290 88510,6922.86,95.541,545.786,543.664,0.0
54076.0,STARLINK-5201,PAYLOAD,2024-05-24 20:44:08,15.07199742,0.0001653,53.2191,38.8865,116.7177,243.3984,6.5554e-05,7.14e-06,0.0,0 STARLINK-5201,1 54076U 22136AB  24145.86398322  .00000714  00000-0  65554-4 0  9994,2 54076  53.2191  38.8865 0001653 116.7177 243.3984 15.07199742 88620,6922.899,95.541,545.908,543.619,0.0
